[{"OBJECT_NAME":"STARLINK-32463","OBJECT_ID":"2024-222S","EPOCH":"2026-03-09T12:09:37.816416","MEAN_MOTION":15.27589234,"ECCENTRICITY":0.00013166,"INCLINATION":43.0018,"RA_OF_ASC_NODE":136.9895,"ARG_OF_PERICENTER":249.159,"MEAN_ANOMALY":110.9121,"EPHEMERIS_TYPE":0,"CLASSIFICATION_TYPE":"U","NORAD_CAT_ID":62130,"ELEMENT_SET_NO":999,"REV_AT_EPOCH":7272,"BSTAR":0.0010114401,"MEAN_MOTION_DOT":0.00027683,"MEAN_MOTION_DDOT":0},{"OBJECT_NAME":"BLUEBON","OBJECT_ID":"2025-009CH","EPOCH":"2026-03-09T16:52:33.225312","MEAN_MOTION":15.29047254,"ECCENTRICITY":0.00011933,"INCLINATION":97.4017,"RA_OF_ASC_NODE":152.2033,"ARG_OF_PERICENTER":43.39,"MEAN_ANOMALY":316.7434,"EPHEMERIS_TYPE":0,"CLASSIFICATION_TYPE":"U","NORAD_CAT_ID":62688,"ELEMENT_SET_NO":999,"REV_AT_EPOCH":6376,"BSTAR":0.00037313027,"MEAN_MOTION_DOT":0.00010452,"MEAN_MOTION_DDOT":0}]
