STARLINK-32463          
1 62130U 24222S   26068.50668769  .00027683  00000+0  10114-2 0  9997
2 62130  43.0018 136.9895 0001316 249.1590 110.9121 15.27589234 72721
BLUEBON                 
1 62688U 25009CH  26068.70316231  .00010452  00000+0  37313-3 0  9992
2 62688  97.4017 152.2033 0001193  43.3900 316.7434 15.29047253 63767
